1 41860U 16069B   19325.47175376  .00000085  00000-0  00000-0 0  9994
2 41860  54.6174 167.6465 0002723 359.9417   0.1387  1.70473110 18748
1 41860U 16069B   19328.99126380  .00000083  00000-0  00000+0 0  9992
2 41860  54.6180 167.5486 0002687   0.8654 359.2145  1.70473144 18805
1 41860U 16069B   19329.57784417  .00000079  00000-0  00000-0 0  9994
2 41860  54.6180 167.5323 0002684   0.9877 359.0892  1.70473145 18819
1 41860U 16069B   19331.33757746  .00000065  00000-0  00000+0 0  9990
2 41860  54.6184 167.4833 0002659   1.6147 358.4500  1.70473239 18844
1 41860U 16069B   19333.68389088  .00000056  00000-0  00000+0 0  9990
2 41860  54.6189 167.4180 0002628   2.0129 358.0359  1.70473308 18884
1 41860U 16069B   19334.85705247  .00000058  00000-0  00000-0 0  9992
2 41860  54.6189 167.3854 0002610   1.9514 358.0929  1.70473372 18905
1 41860U 16069B   19336.03021917  .00000064  00000-0  00000+0 0  9995
2 41860  54.6194 167.3527 0002605   2.0988 357.9442  1.70473405 18926
1 41860U 16069B   19336.61680386  .00000068  00000-0  00000-0 0  9995
2 41860  54.6195 167.3364 0002602   2.0676 357.9758  1.70473422 18937
1 41860U 16069B   19338.96315206  .00000086  00000-0  00000+0 0  9990
2 41860  54.6200 167.2712 0002598   2.4151 357.6341  1.70473449 18974
1 41860U 16069B   19340.72291370  .00000098  00000-0  00000-0 0  9996
2 41860  54.6203 167.2223 0002578   2.7500 357.3039  1.70473426 19004
1 41860U 16069B   19343.06924914  .00000108  00000-0  00000+0 0  9994
2 41860  54.6208 167.1571 0002562   2.6862 357.3668  1.70473401 19042
1 41860U 16069B   19343.65582963  .00000109  00000-0  00000-0 0  9995
2 41860  54.6209 167.1407 0002557   2.6939 357.3571  1.70473409 19052
1 41860U 16069B   19345.41556676  .00000108  00000-0  00000+0 0  9991
2 41860  54.6213 167.0918 0002542   2.7722 357.2688  1.70473358 19082
1 41860U 16069B   19346.00214417  .00000106  00000-0  00000-0 0  9990
2 41860  54.6214 167.0755 0002541   2.8018 357.2347  1.70473337 19090
1 41860U 16069B   19348.34845321  .00000095  00000-0  00000-0 0  9990
2 41860  54.6219 167.0103 0002526   3.0956 356.9236  1.70473305 19132
1 41860U 16069B   19348.34845346  .00000095  00000-0  00000+0 0  9996
2 41860  54.6219 167.0103 0002531   3.1243 356.8949  1.70473305 19138
1 41860U 16069B   19350.69477774  .00000089  00000-0  00000+0 0  9996
2 41860  54.6224 166.9450 0002511   3.1966 356.8146  1.70473291 19174
1 41860U 16069B   19351.28136135  .00000090  00000-0  00000-0 0  9998
2 41860  54.6226 166.9287 0002503   3.0516 356.9596  1.70473310 19188
1 41860U 16069B   19353.04111999  .00000092  00000-0  00000+0 0  9996
2 41860  54.6231 166.8797 0002478   2.6122 357.4015  1.70473275 19214
1 41860U 16069B   19355.38745795  .00000089  00000-0  00000+0 0  9998
2 41860  54.6235 166.8146 0002460   2.2022 357.8112  1.70473285 19259
1 41860U 16069B   19357.73377226  .00000070  00000-0  00000+0 0  9999
2 41860  54.6233 166.7494 0002436   2.0174 357.9830  1.70473403 19295
1 41860U 16069B   19358.32034940  .00000064  00000-0  00000-0 0  9992
2 41860  54.6235 166.7330 0002426   1.9930 358.0028  1.70473400 19303
1 41860U 16069B   19360.08007975  .00000051  00000-0  00000+0 0  9991
2 41860  54.6240 166.6842 0002400   1.4672 358.5147  1.70473462 19334
1 41860U 16069B   19360.66665637  .00000048  00000-0  00000-0 0  9997
2 41860  54.6241 166.6678 0002413   1.8453 358.1331  1.70473520 19344
1 41860U 16069B   19363.01298282  .00000050  00000-0  00000+0 0  9999
2 41860  54.6249 166.6026 0002399   1.1206 358.8503  1.70473527 19380
1 41860U 16069B   19365.35932481  .00000063  00000-0  00000+0 0  9998
2 41860  54.6255 166.5374 0002386   0.4883 359.4865  1.70473588 19421
1 41860U 16069B   19365.94591190  .00000067  00000-0  00000-0 0  9996
2 41860  54.6256 166.5211 0002364 359.9377   0.0387  1.70473589 19438
